start=new Date('2022-12-07T00:00:00.000Z').valueOf();
sats=[{"OBJECT_TYPE":"PAYLOAD","TLE_LINE2":"2 48677  53.0563  49.3562 0001862  54.4196 305.6966 15.06392006 85472","TIME_SYSTEM":"UTC","RCS_SIZE":"LARGE","DECAY_DATE":null,"COUNTRY_CODE":"US","CENTER_NAME":"EARTH","INCLINATION":"53.0563","MEAN_ANOMALY":"305.6966","SEMIMAJOR_AXIS":"6925.373","MEAN_MOTION_DOT":"-0.00002609","FILE":"3683342","PERIOD":"95.593","TLE_LINE1":"1 48677U 21044AR  22340.66559736 -.00002609  00000-0 -15633-3 0  9991","ELEMENT_SET_NO":"999","BSTAR":"-0.00015633000000","RA_OF_ASC_NODE":"49.3562","SITE":"AFETR","REV_AT_EPOCH":"8547","OBJECT_ID":"2021-044AR","GP_ID":"219701474","EPHEMERIS_TYPE":"0","PERIAPSIS":"545.949","LAUNCH_DATE":"2021-05-26","NORAD_CAT_ID":"48677","MEAN_MOTION_DDOT":"0.0000000000000","REF_FRAME":"TEME","MEAN_ELEMENT_THEORY":"SGP4","EPOCH":"2022-12-06T15:58:27.611904","MEAN_MOTION":"15.06392006","CLASSIFICATION_TYPE":"U","ARG_OF_PERICENTER":"54.4196","ECCENTRICITY":"0.00018620","OBJECT_NAME":"STARLINK-2719","APOAPSIS":"548.528"},{"RCS_SIZE":"LARGE","DECAY_DATE":null,"TIME_SYSTEM":"UTC","TLE_LINE2":"2 48678  53.0546  49.3830 0001701  55.6762 304.4388 15.06394868 84636","OBJECT_TYPE":"PAYLOAD","INCLINATION":"53.0546","CENTER_NAME":"EARTH","COUNTRY_CODE":"US","MEAN_MOTION_DOT":"-0.00000718","SEMIMAJOR_AXIS":"6925.364","MEAN_ANOMALY":"304.4388","REV_AT_EPOCH":"8463","SITE":"AFETR","RA_OF_ASC_NODE":"49.3830","BSTAR":"-0.00002932700000","TLE_LINE1":"1 48678U 21044AS  22340.66285327 -.00000718  00000-0 -29327-4 0  9999","ELEMENT_SET_NO":"999","PERIOD":"95.592","FILE":"3683274","LAUNCH_DATE":"2021-05-26","PERIAPSIS":"546.051","EPHEMERIS_TYPE":"0","GP_ID":"219695700","OBJECT_ID":"2021-044AS","MEAN_ELEMENT_THEORY":"SGP4","REF_FRAME":"TEME","MEAN_MOTION_DDOT":"0.0000000000000","NORAD_CAT_ID":"48678","OBJECT_NAME":"STARLINK-2615","ECCENTRICITY":"0.00017010","MEAN_MOTION":"15.06394868","CLASSIFICATION_TYPE":"U","ARG_OF_PERICENTER":"55.6762","EPOCH":"2022-12-06T15:54:30.522528","APOAPSIS":"548.407"},{"MEAN_MOTION_DOT":"0.00001543","MEAN_ANOMALY":"273.1250","SEMIMAJOR_AXIS":"6925.346","RA_OF_ASC_NODE":"50.2876","REV_AT_EPOCH":"8460","SITE":"AFETR","PERIOD":"95.592","FILE":"3683104","TLE_LINE1":"1 48679U 21044AT  22340.46012452  .00001543  00000-0  12248-3 0  9993","BSTAR":"0.00012248000000","ELEMENT_SET_NO":"999","TIME_SYSTEM":"UTC","TLE_LINE2":"2 48679  53.0555  50.2876 0001430  86.9903 273.1250 15.06400849 84605","RCS_SIZE":"LARGE","DECAY_DATE":null,"OBJECT_TYPE":"PAYLOAD","CENTER_NAME":"EARTH","INCLINATION":"53.0555","COUNTRY_CODE":"US","OBJECT_NAME":"STARLINK-2648","EPOCH":"2022-12-06T11:02:34.758528","ECCENTRICITY":"0.00014300","CLASSIFICATION_TYPE":"U","ARG_OF_PERICENTER":"86.9903","MEAN_MOTION":"15.06400849","APOAPSIS":"548.201","PERIAPSIS":"546.221","EPHEMERIS_TYPE":"0","LAUNCH_DATE":"2021-05-26","GP_ID":"219666469","OBJECT_ID":"2021-044AT","MEAN_ELEMENT_THEORY":"SGP4","MEAN_MOTION_DDOT":"0.0000000000000","REF_FRAME":"TEME","NORAD_CAT_ID":"48679"},{"NORAD_CAT_ID":"48680","MEAN_ELEMENT_THEORY":"SGP4","REF_FRAME":"TEME","MEAN_MOTION_DDOT":"0.0000000000000","OBJECT_ID":"2021-044AU","GP_ID":"219695215","PERIAPSIS":"546.034","EPHEMERIS_TYPE":"0","LAUNCH_DATE":"2021-05-26","APOAPSIS":"548.498","EPOCH":"2022-12-06T20:30:31.231296","ECCENTRICITY":"0.00017790","ARG_OF_PERICENTER":"58.6516","CLASSIFICATION_TYPE":"U","MEAN_MOTION":"15.06382982","OBJECT_NAME":"STARLINK-2649","COUNTRY_CODE":"US","CENTER_NAME":"EARTH","INCLINATION":"53.0542","OBJECT_TYPE":"PAYLOAD","TIME_SYSTEM":"UTC","TLE_LINE2":"2 48680  53.0542  48.5128 0001779  58.6516 301.4647 15.06382982 84663","RCS_SIZE":"LARGE","DECAY_DATE":null,"PERIOD":"95.593","FILE":"3683274","ELEMENT_SET_NO":"999","TLE_LINE1":"1 48680U 21044AU  22340.85452814 -.00003258  00000-0 -19998-3 0  9994","BSTAR":"-0.00019998000000","RA_OF_ASC_NODE":"48.5128","REV_AT_EPOCH":"8466","SITE":"AFETR","MEAN_ANOMALY":"301.4647","SEMIMAJOR_AXIS":"6925.401","MEAN_MOTION_DOT":"-0.00003258"},{"MEAN_ELEMENT_THEORY":"SGP4","REF_FRAME":"TEME","MEAN_MOTION_DDOT":"0.0000000000000","NORAD_CAT_ID":"48681","PERIAPSIS":"546.070","EPHEMERIS_TYPE":"0","LAUNCH_DATE":"2021-05-26","OBJECT_ID":"2021-044AV","GP_ID":"219695965","APOAPSIS":"548.431","OBJECT_NAME":"STARLINK-2725","EPOCH":"2022-12-06T14:07:04.086336","ECCENTRICITY":"0.00017050","ARG_OF_PERICENTER":"66.6421","CLASSIFICATION_TYPE":"U","MEAN_MOTION":"15.06387945","CENTER_NAME":"EARTH","INCLINATION":"53.0562","COUNTRY_CODE":"US","TIME_SYSTEM":"UTC","TLE_LINE2":"2 48681  53.0562  19.9541 0001705  66.6421 293.4748 15.06387945 85038","RCS_SIZE":"LARGE","DECAY_DATE":null,"OBJECT_TYPE":"PAYLOAD","RA_OF_ASC_NODE":"19.9541","REV_AT_EPOCH":"8503","SITE":"AFETR","PERIOD":"95.593","FILE":"3683274","TLE_LINE1":"1 48681U 21044AV  22340.58824174 -.00004120  00000-0 -25791-3 0  9994","ELEMENT_SET_NO":"999","BSTAR":"-0.00025791000000","MEAN_MOTION_DOT":"-0.00004120","MEAN_ANOMALY":"293.4748","SEMIMAJOR_AXIS":"6925.386"},{"GP_ID":"219696200","OBJECT_ID":"2021-044AW","EPHEMERIS_TYPE":"0","PERIAPSIS":"545.909","LAUNCH_DATE":"2021-05-26","NORAD_CAT_ID":"48682","MEAN_MOTION_DDOT":"0.0000000000000","REF_FRAME":"TEME","MEAN_ELEMENT_THEORY":"SGP4","EPOCH":"2022-12-06T18:49:42.088224","CLASSIFICATION_TYPE":"U","ARG_OF_PERICENTER":"51.0839","MEAN_MOTION":"15.06382454","ECCENTRICITY":"0.00019610","OBJECT_NAME":"STARLINK-2743","APOAPSIS":"548.625","OBJECT_TYPE":"PAYLOAD","TLE_LINE2":"2 48682  53.0541   8.9995 0001961  51.0839 309.0324 15.06382454 85205","TIME_SYSTEM":"UTC","RCS_SIZE":"LARGE","DECAY_DATE":null,"COUNTRY_CODE":"US","CENTER_NAME":"EARTH","INCLINATION":"53.0541","MEAN_ANOMALY":"309.0324","SEMIMAJOR_AXIS":"6925.402","MEAN_MOTION_DOT":"-0.00005918","FILE":"3683274","PERIOD":"95.593","TLE_LINE1":"1 48682U 21044AW  22340.78451491 -.00005918  00000-0 -37886-3 0  9999","BSTAR":"-0.00037886000000","ELEMENT_SET_NO":"999","RA_OF_ASC_NODE":"8.9995","SITE":"AFETR","REV_AT_EPOCH":"8520"},{"FILE":"3683104","PERIOD":"95.592","TLE_LINE1":"1 48683U 21044AX  22340.47486605  .00001428  00000-0  11477-3 0  9999","ELEMENT_SET_NO":"999","BSTAR":"0.00011477000000","RA_OF_ASC_NODE":"10.2331","SITE":"AFETR","REV_AT_EPOCH":"8516","MEAN_ANOMALY":"306.9491","SEMIMAJOR_AXIS":"6925.333","MEAN_MOTION_DOT":"0.00001428","COUNTRY_CODE":"US","CENTER_NAME":"EARTH","INCLINATION":"53.0558","OBJECT_TYPE":"PAYLOAD","TLE_LINE2":"2 48683  53.0558  10.2331 0001934  53.1675 306.9491 15.06405043 85161","TIME_SYSTEM":"UTC","RCS_SIZE":"LARGE","DECAY_DATE":null,"APOAPSIS":"548.537","EPOCH":"2022-12-06T11:23:48.426720","CLASSIFICATION_TYPE":"U","ARG_OF_PERICENTER":"53.1675","MEAN_MOTION":"15.06405043","ECCENTRICITY":"0.00019340","OBJECT_NAME":"STARLINK-2756","NORAD_CAT_ID":"48683","REF_FRAME":"TEME","MEAN_MOTION_DDOT":"0.0000000000000","MEAN_ELEMENT_THEORY":"SGP4","OBJECT_ID":"2021-044AX","GP_ID":"219665985","EPHEMERIS_TYPE":"0","PERIAPSIS":"545.859","LAUNCH_DATE":"2021-05-26"},{"MEAN_MOTION_DOT":"-0.00001042","MEAN_ANOMALY":"281.7010","SEMIMAJOR_AXIS":"6925.365","RA_OF_ASC_NODE":"25.1726","REV_AT_EPOCH":"8586","SITE":"AFETR","PERIOD":"95.592","FILE":"3683196","BSTAR":"-0.00005105500000","TLE_LINE1":"1 48684U 21044AY  22340.56384207 -.00001042  00000-0 -51055-4 0  9996","ELEMENT_SET_NO":"999","TIME_SYSTEM":"UTC","TLE_LINE2":"2 48684  53.0580  25.1726 0001613  78.4160 281.7010 15.06394666 85865","DECAY_DATE":null,"RCS_SIZE":"LARGE","OBJECT_TYPE":"PAYLOAD","CENTER_NAME":"EARTH","INCLINATION":"53.0580","COUNTRY_CODE":"US","OBJECT_NAME":"STARLINK-2741","EPOCH":"2022-12-06T13:31:55.954848","ECCENTRICITY":"0.00016130","ARG_OF_PERICENTER":"78.4160","CLASSIFICATION_TYPE":"U","MEAN_MOTION":"15.06394666","APOAPSIS":"548.347","PERIAPSIS":"546.113","EPHEMERIS_TYPE":"0","LAUNCH_DATE":"2021-05-26","OBJECT_ID":"2021-044AY","GP_ID":"219671961","MEAN_ELEMENT_THEORY":"SGP4","MEAN_MOTION_DDOT":"0.0000000000000","REF_FRAME":"TEME","NORAD_CAT_ID":"48684"},{"NORAD_CAT_ID":"48685","REF_FRAME":"TEME","MEAN_MOTION_DDOT":"0.0000000000000","MEAN_ELEMENT_THEORY":"SGP4","GP_ID":"219695466","OBJECT_ID":"2021-044AZ","EPHEMERIS_TYPE":"0","PERIAPSIS":"546.035","LAUNCH_DATE":"2021-05-26","APOAPSIS":"548.474","EPOCH":"2022-12-06T18:39:04.398336","ARG_OF_PERICENTER":"65.5500","CLASSIFICATION_TYPE":"U","MEAN_MOTION":"15.06386759","ECCENTRICITY":"0.00017610","OBJECT_NAME":"STARLINK-2751","COUNTRY_CODE":"US","CENTER_NAME":"EARTH","INCLINATION":"53.0572","OBJECT_TYPE":"PAYLOAD","TLE_LINE2":"2 48685  53.0572   8.9083 0001761  65.5500 294.5673 15.06386759 85211","TIME_SYSTEM":"UTC","RCS_SIZE":"LARGE","DECAY_DATE":null,"FILE":"3683274","PERIOD":"95.593","TLE_LINE1":"1 48685U 21044AZ  22340.77713424 -.00001511  00000-0 -82559-4 0  9991","ELEMENT_SET_NO":"999","BSTAR":"-0.00008255900000","RA_OF_ASC_NODE":"8.9083","SITE":"AFETR","REV_AT_EPOCH":"8521","MEAN_ANOMALY":"294.5673","SEMIMAJOR_AXIS":"6925.389","MEAN_MOTION_DOT":"-0.00001511"},{"PERIAPSIS":"545.655","EPHEMERIS_TYPE":"0","LAUNCH_DATE":"2021-05-26","OBJECT_ID":"2021-044BA","GP_ID":"219695701","MEAN_ELEMENT_THEORY":"SGP4","REF_FRAME":"TEME","MEAN_MOTION_DDOT":"0.0000000000000","NORAD_CAT_ID":"48686","OBJECT_NAME":"STARLINK-2629","EPOCH":"2022-12-06T13:43:51.860064","ECCENTRICITY":"0.00022800","CLASSIFICATION_TYPE":"U","ARG_OF_PERICENTER":"43.6499","MEAN_MOTION":"15.06393385","APOAPSIS":"548.813","TIME_SYSTEM":"UTC","TLE_LINE2":"2 48686  53.0578  15.0672 0002280  43.6499 316.4670 15.06393385 85104","RCS_SIZE":"LARGE","DECAY_DATE":null,"OBJECT_TYPE":"PAYLOAD","CENTER_NAME":"EARTH","INCLINATION":"53.0578","COUNTRY_CODE":"US","MEAN_MOTION_DOT":"-0.00000715","MEAN_ANOMALY":"316.4670","SEMIMAJOR_AXIS":"6925.369","RA_OF_ASC_NODE":"15.0672","REV_AT_EPOCH":"8510","SITE":"AFETR","PERIOD":"95.593","FILE":"3683274","BSTAR":"-0.00002908800000","TLE_LINE1":"1 48686U 21044BA  22340.57212801 -.00000715  00000-0 -29088-4 0  9996","ELEMENT_SET_NO":"999"}];
